DMSP 5D-3 F16 (USA 172) 
1 28054U 03048A   26170.92993872 -.00000046  00000+0 -24712-6 0  9992
2 28054  98.9889 194.7765 0007859 133.2045 321.5659 14.14483105169871
METEOSAT-9 (MSG-2)      
1 28912U 05049B   26170.92883707  .00000115  00000+0  00000+0 0  9995
2 28912   9.3683  54.1432 0001774 346.4633 247.5699  1.00273646  7020
DMSP 5D-3 F17 (USA 191) 
1 29522U 06050A   26170.92743686 -.00000013  00000+0  15473-4 0  9990
2 29522  98.7378 177.4415 0011078  52.2944 307.9233 14.14993168 12811
FENGYUN 3A              
1 32958U 08026A   26170.79618914  .00000061  00000+0  49281-4 0  9998
2 32958  98.6883 111.5806 0009683 116.8427 243.3740 14.19571611935778
GOES 14                 
1 35491U 09033A   26170.84012469 -.00000307  00000+0  00000+0 0  9996
2 35491   1.6979  83.0125 0001890  13.0047 254.7779  1.00110180  6614
DMSP 5D-3 F18 (USA 210) 
1 35951U 09057A   26170.89899704  .00000221  00000+0  13775-3 0  9994
2 35951  98.9038 151.6622 0009951 240.9050 119.1127 14.14898278859971
EWS-G2 (GOES 15)        
1 36411U 10008A   26170.81078444  .00000014  00000+0  00000+0 0  9999
2 36411   1.2858  82.8080 0004905  42.1464 138.6248  1.00266643 59662
COMS 1                  
1 36744U 10032A   26170.82989126  .00000085  00000+0  00000+0 0  9992
2 36744   4.8128  75.3251 0011626  12.2751 182.1056  0.99163136 51115
FENGYUN 3B              
1 37214U 10059A   26171.00206086 -.00000010  00000+0  18382-4 0  9998
2 37214  98.9611 217.0289 0022105 176.0654 300.9254 14.14841312807828
SUOMI NPP               
1 37849U 11061A   26170.94852749  .00000061  00000+0  49843-4 0  9992
2 37849  98.7953 111.8057 0001376   0.3525 359.7652 14.19517898758830
METEOSAT-10 (MSG-3)     
1 38552U 12035B   26170.03753987 -.00000014  00000+0  00000+0 0  9996
2 38552   4.6769  61.0157 0001437   1.0805 218.9888  1.00266258 50870
METOP-B                 
1 38771U 12049A   26170.93488414  .00000063  00000+0  48821-4 0  9994
2 38771  98.6502 222.3792 0002093  11.9854 348.1373 14.21440570713656
INSAT-3D                
1 39216U 13038B   26170.84728171 -.00000345  00000+0  00000+0 0  9991
2 39216   1.9340  82.5091 0000614 325.8373 294.2202  1.00268139 47100
FENGYUN 3C              
1 39260U 13052A   26170.94142701  .00000059  00000+0  51106-4 0  9995
2 39260  98.4987 144.6898 0015083  20.0672 340.1093 14.15755655658958
METEOR-M 2              
1 40069U 14037A   26170.96120350 -.00000080  00000+0 -17175-4 0  9990
2 40069  98.5120 146.6016 0006633  37.6293 322.5348 14.21461861619713
HIMAWARI-8              
1 40267U 14060A   26170.84953506 -.00000281  00000+0  00000+0 0  9996
2 40267   0.0166  46.3754 0001134  46.7555 261.4335  1.00270934 42785
FENGYUN 2G              
1 40367U 14090A   26170.77009894 -.00000310  00000+0  00000+0 0  9997
2 40367   5.6465  72.7874 0003825 158.5034  53.6178  1.00270908 42022
METEOSAT-11 (MSG-4)     
1 40732U 15034A   26170.75227588  .00000056  00000+0  00000+0 0  9998
2 40732   3.2073  71.0913 0002414 346.2837 131.0177  1.00263852  7248
ELEKTRO-L 2             
1 41105U 15074A   26169.03651196 -.00000126  00000+0  00000+0 0  9991
2 41105   6.6975  70.5132 0000902 256.1704 298.2263  1.00270556 38515
SENTINEL-3A             
1 41335U 16011A   26170.95162052  .00000027  00000+0  29064-4 0  9994
2 41335  98.6249 238.2957 0001415  99.4207 260.7134 14.26733280538458
INSAT-3DR               
1 41752U 16054A   26170.95892338 -.00000082  00000+0  00000+0 0  9997
2 41752   0.1137  86.2300 0010456 187.5985  53.5247  1.00271248 35842
HIMAWARI-9              
1 41836U 16064A   26170.84953506 -.00000281  00000+0  00000+0 0  9995
2 41836   0.0181 315.7897 0001046 172.9640 225.8982  1.00270044 35231
GOES 16                 
1 41866U 16071A   26170.87224183 -.00000096  00000+0  00000+0 0  9995
2 41866   0.3492  85.5236 0000291 333.2967  58.5806  1.00271359 35131
FENGYUN 4A              
1 41882U 16077A   26171.02267037 -.00000363  00000+0  00000+0 0  9999
2 41882   2.3308  80.2617 0008472 153.0668 166.7941  1.00267460 34956
CYGFM05                 
1 41884U 16078A   26170.61632775  .00019556  00000+0  26419-3 0  9990
2 41884  34.9560 244.5035 0007264 175.1929 184.8866 15.56762311529138
CYGFM04                 
1 41885U 16078B   26170.51544080  .00023510  00000+0  26370-3 0  9992
2 41885  34.9311 212.7437 0006974 215.9768 144.0489 15.61620009529364
CYGFM02                 
1 41886U 16078C   26170.51165565  .00027984  00000+0  27850-3 0  9993
2 41886  34.9391 207.2365 0007992 217.1702 142.8472 15.64626531529531
CYGFM01                 
1 41887U 16078D   26170.60398084  .00020400  00000+0  26862-3 0  9996
2 41887  34.9390 245.6230 0006985 168.9657 191.1221 15.57442433529089
CYGFM08                 
1 41888U 16078E   26170.55930979  .00022522  00000+0  26756-3 0  9995
2 41888  34.9419 225.4354 0008618 199.4755 160.5642 15.60122432529342
CYGFM07                 
1 41890U 16078G   26170.51830466  .00021971  00000+0  26022-3 0  9997
2 41890  34.9433 214.0474 0007394 215.1279 144.8959 15.60217463529362
CYGFM03                 
1 41891U 16078H   26170.48932189  .00021626  00000+0  25627-3 0  9996
2 41891  34.9389 216.1772 0006794 203.2035 156.8384 15.60210432529339
